OBJECT_NAME,OBJECT_ID,EPOCH,MEAN_MOTION,ECCENTRICITY,INCLINATION,RA_OF_ASC_NODE,ARG_OF_PERICENTER,MEAN_ANOMALY,EPHEMERIS_TYPE,CLASSIFICATION_TYPE,NORAD_CAT_ID,ELEMENT_SET_NO,REV_AT_EPOCH,BSTAR,MEAN_MOTION_DOT,MEAN_MOTION_DDOT
INTELSAT 23 (IS-23),2012-057A,2026-06-24T05:11:46.536576,1.00272280,.0000044,0.0135,2.5807,206.2330,88.4905,0,U,38867,999,5002,0,-.277E-5,0
FM-6,2013-058A,2026-06-24T04:55:20.027424,1.00271044,.00017512,0.0141,80.3203,99.0358,50.5384,0,U,39360,999,4614,0,-.9E-7,0
INTELSAT 30 (IS-30),2014-062A,2026-06-24T04:22:38.578944,1.00270439,.0001474,0.0251,51.4386,341.2185,210.2890,0,U,40271,999,686,0,-.143E-5,0
DIRECTV 14,2014-078B,2026-06-24T04:22:38.578944,1.00271057,.00002177,0.0117,28.0808,350.4059,220.2724,0,U,40333,999,4211,0,-.118E-5,0
DIRECTV 15,2015-026A,2026-06-24T04:44:33.454752,1.00270328,.00005413,0.0139,54.2408,338.0093,208.3690,0,U,40663,999,4053,0,-.95E-6,0
SKY MEXICO-1,2015-026B,2026-06-24T05:25:35.955840,1.00271346,.00024544,0.0178,327.9235,141.9600,165.0977,0,U,40664,999,4052,0,-.227E-5,0
INTELSAT 34 (IS-34),2015-039A,2026-06-24T02:06:59.993568,1.00270534,.00004753,0.0095,353.9030,19.7271,234.8708,0,U,40874,999,3970,0,-.278E-5,0
INTELSAT 31 (IS-31),2016-035A,2026-06-24T04:22:38.578944,1.00270817,.00007167,0.0168,272.3076,354.0024,336.6363,0,U,41581,999,3675,0,-.143E-5,0
INTELSAT 36 (IS-36),2016-053A,2026-06-22T22:52:06.867264,1.00272087,.00022442,0.0105,2.2713,339.1200,341.2767,0,U,41747,999,3601,0,-.21E-6,0
INTELSAT 32E (IS-32E),2017-007B,2026-06-24T03:53:04.697088,1.00269976,.00006028,0.0176,349.3790,358.7841,299.2401,0,U,41945,999,3429,0,-.262E-5,0
INTELSAT 35E (IS-35E),2017-041A,2026-06-24T03:55:34.457664,1.00272023,.0002295,0.0150,338.3280,114.0612,204.3337,0,U,42818,999,3288,0,-.231E-5,0
INTELSAT 37E (IS-37E),2017-059A,2026-06-24T05:00:38.801952,1.00268788,.00030481,0.0243,8.1537,110.0084,211.3584,0,U,42950,999,3213,0,0,0
AZERSPACE 2 (IS-38),2018-074A,2026-06-24T05:29:38.510016,1.00271404,.00016286,0.0251,13.9170,81.6120,304.3750,0,U,43632,999,2851,0,0,0
HORIZONS-3E,2018-074B,2026-06-24T03:11:02.118624,1.00270268,.00005468,0.0084,244.9552,64.2971,179.8035,0,U,43633,999,2841,0,-.24E-6,0
AT&T T-16,2019-034A,2026-06-24T05:12:18.359424,1.00269597,.00004288,0.0234,69.8864,237.8872,301.8051,0,U,44333,999,2570,0,-.108E-5,0
INTELSAT 39 (IS-39),2019-049B,2026-06-24T02:40:23.191392,1.00270553,.00009695,0.0010,35.4233,309.7634,29.1253,0,U,44476,999,2519,0,.41E-6,0
GALAXY 30 (G-30),2020-056C,2026-06-24T05:43:05.439360,1.00270568,.00022033,0.0116,48.6374,40.4727,144.0438,0,U,46114,999,2136,0,.44E-6,0
GALAXY 33 (G-33),2022-128A,2026-06-24T01:44:54.339360,1.00275107,.00017933,0.0098,332.5254,123.6035,69.3408,0,U,54026,999,1381,0,.86E-6,0
GALAXY 34 (G-34),2022-128B,2026-06-23T07:41:18.543264,1.00267852,.00017934,0.0203,0.4191,105.3742,152.0255,0,U,54027,999,1397,0,0,0
GALAXY 31 (G-31),2022-153A,2026-06-24T05:40:20.689248,1.00272079,.00014961,0.0160,350.4496,103.1449,142.8858,0,U,54243,999,720,0,0,0
GALAXY 32 (G-32),2022-153B,2026-06-24T05:22:05.316096,1.00271380,.0002133,0.0097,2.1596,41.7877,217.9513,0,U,54244,999,1321,0,-.167E-5,0
GALAXY 35 (G-35),2022-170A,2026-06-24T07:06:31.687776,1.00271925,.00020465,0.0138,296.0544,153.5498,196.3688,0,U,54741,999,1296,0,-.155E-5,0
GALAXY 36 (G-36),2022-170B,2026-06-24T07:07:08.378400,1.00271874,.00027853,0.0336,136.3982,310.4317,203.4101,0,U,54742,999,1284,0,-.178E-5,0
GALAXY 37 (G-37),2023-112A,2026-06-24T05:42:06.676992,1.00272969,.00022057,0.0180,25.1992,67.3375,138.3851,0,U,57493,999,1061,0,.55E-6,0
