INTELSAT 23 (IS-23)     
1 38867U 12057A   26175.21651084 -.00000277  00000+0  00000+0 0  9990
2 38867   0.0135   2.5807 0000044 206.2330  88.4905  1.00272280 50022
FM-6                    
1 39360U 13058A   26175.20509291 -.00000009  00000+0  00000+0 0  9995
2 39360   0.0141  80.3203 0001751  99.0358  50.5384  1.00271044 46142
INTELSAT 30 (IS-30)     
1 40271U 14062A   26175.18239096 -.00000143  00000+0  00000+0 0  9993
2 40271   0.0251  51.4386 0001474 341.2185 210.2890  1.00270439  6869
DIRECTV 14              
1 40333U 14078B   26175.18239096 -.00000118  00000+0  00000+0 0  9991
2 40333   0.0117  28.0808 0000217 350.4059 220.2724  1.00271057 42116
DIRECTV 15              
1 40663U 15026A   26175.19760943 -.00000095  00000+0  00000+0 0  9996
2 40663   0.0139  54.2408 0000541 338.0093 208.3690  1.00270328 40536
SKY MEXICO-1            
1 40664U 15026B   26175.22611060 -.00000227  00000+0  00000+0 0  9993
2 40664   0.0178 327.9235 0002454 141.9600 165.0977  1.00271346 40525
INTELSAT 34 (IS-34)     
1 40874U 15039A   26175.08819437 -.00000278  00000+0  00000+0 0  9998
2 40874   0.0095 353.9030 0000475  19.7271 234.8708  1.00270534 39708
INTELSAT 31 (IS-31)     
1 41581U 16035A   26175.18239096 -.00000143  00000+0  00000+0 0  9990
2 41581   0.0168 272.3076 0000716 354.0024 336.6363  1.00270817 36752
INTELSAT 36 (IS-36)     
1 41747U 16053A   26173.95285726 -.00000021  00000+0  00000+0 0  9993
2 41747   0.0105   2.2713 0002244 339.1200 341.2767  1.00272087 36013
INTELSAT 32E (IS-32E)   
1 41945U 17007B   26175.16185992 -.00000262  00000+0  00000+0 0  9999
2 41945   0.0176 349.3790 0000602 358.7841 299.2401  1.00269976 34293
INTELSAT 35E (IS-35E)   
1 42818U 17041A   26175.16359326 -.00000231  00000+0  00000+0 0  9997
2 42818   0.0150 338.3280 0002295 114.0612 204.3337  1.00272023 32881
INTELSAT 37E (IS-37E)   
1 42950U 17059A   26175.20878243  .00000000  00000+0  00000+0 0  9995
2 42950   0.0243   8.1537 0003048 110.0084 211.3584  1.00268788 32137
AZERSPACE 2 (IS-38)     
1 43632U 18074A   26175.22891794  .00000000  00000+0  00000+0 0  9999
2 43632   0.0251  13.9170 0001628  81.6120 304.3750  1.00271404 28511
HORIZONS-3E             
1 43633U 18074B   26175.13266341 -.00000024  00000+0  00000+0 0  9991
2 43633   0.0084 244.9552 0000546  64.2971 179.8035  1.00270268 28412
AT&T T-16               
1 44333U 19034A   26175.21687916 -.00000108  00000+0  00000+0 0  9993
2 44333   0.0234  69.8864 0000428 237.8872 301.8051  1.00269597 25701
INTELSAT 39 (IS-39)     
1 44476U 19049B   26175.11137953  .00000041  00000+0  00000+0 0  9992
2 44476   0.0010  35.4233 0000969 309.7634  29.1253  1.00270553 25196
GALAXY 30 (G-30)        
1 46114U 20056C   26175.23825740  .00000044  00000+0  00000+0 0  9997
2 46114   0.0116  48.6374 0002203  40.4727 144.0438  1.00270568 21364
GALAXY 33 (G-33)        
1 54026U 22128A   26175.07285115  .00000086  00000+0  00000+0 0  9994
2 54026   0.0098 332.5254 0001793 123.6035  69.3408  1.00275107 13816
GALAXY 34 (G-34)        
1 54027U 22128B   26174.32035351  .00000000  00000+0  00000+0 0  9993
2 54027   0.0203   0.4191 0001793 105.3742 152.0255  1.00267852 13973
GALAXY 31 (G-31)        
1 54243U 22153A   26175.23635057  .00000000  00000+0  00000+0 0  9991
2 54243   0.0160 350.4496 0001496 103.1449 142.8858  1.00272079  7203
GALAXY 32 (G-32)        
1 54244U 22153B   26175.22367264 -.00000167  00000+0  00000+0 0  9998
2 54244   0.0097   2.1596 0002133  41.7877 217.9513  1.00271380 13210
GALAXY 35 (G-35)        
1 54741U 22170A   26175.29620009 -.00000155  00000+0  00000+0 0  9992
2 54741   0.0138 296.0544 0002046 153.5498 196.3688  1.00271925 12968
GALAXY 36 (G-36)        
1 54742U 22170B   26175.29662475 -.00000178  00000+0  00000+0 0  9991
2 54742   0.0336 136.3982 0002785 310.4317 203.4101  1.00271874 12845
GALAXY 37 (G-37)        
1 57493U 23112A   26175.23757728  .00000055  00000+0  00000+0 0  9997
2 57493   0.0180  25.1992 0002205  67.3375 138.3851  1.00272969 10610
